STARLINK-36743
1 67876U 26034AC  26061.16668981 -.01535366  00000+0 -80525-2 0  9991
2 67876  53.1502 248.8327 0000923  68.3389 162.5517 15.82866040  2657
